STARLINK-1884           
1 47167U 20088AX  21075.91667824 -.00076346  00000-0 -51531-2 0  9996
2 47167  53.0557 186.4073 0008870  19.5033 176.8961 15.06423565  1809
STARLINK-1885           
1 47168U 20088AY  21076.25001157  .00027803  00000-0  18789-2 0  9996
2 47168  53.0546 184.9051 0001540 108.1159 116.9064 15.06383545 18066
STARLINK-1886           
1 47169U 20088AZ  21075.78986718  .00001045  00000-0  62929-4 0  9996
2 47169  53.0579 171.9410 0002808 282.4906  77.5774 15.19864571 17901
STARLINK-1887           
1 47170U 20088BA  21075.91667824 -.00032416  00000-0 -21663-2 0  9993
2 47170  53.0547 186.3956 0001375 116.7574 159.5939 15.06415404  1800
STARLINK-1888           
1 47171U 20088BB  21075.91667824 -.00032522  00000-0 -21734-2 0  9991
2 47171  53.0541 176.3958 0001266  76.0551  95.3151 15.06417683  1802
STARLINK-1889           
1 47172U 20088BC  21075.91667824 -.00025323  00000-0 -18025-2 0  9992
2 47172  53.0599 191.3073 0001384 124.2596  99.9162 15.03947994  1809
STARLINK-1890           
1 47173U 20088BD  21075.91667824 -.00028241  00000-0 -18840-2 0  9990
2 47173  53.0551 186.4047 0001459 120.7495  80.7359 15.06411378  1807
STARLINK-1891           
1 47174U 20088BE  21076.25001157 -.00000674  00000-0 -26347-4 0  9993
2 47174  53.0555 184.9101 0001467 112.0713  52.9319 15.06395148 18050
STARLINK-1895           
1 47175U 20088BF  21075.91667824 -.00472989  00000-0 -16460-1 0  9999
2 47175  53.0524 168.5690 0001309  78.3222  47.3087 15.31219012  1811
STARLINK-1900           
1 47176U 20088BG  21075.91667824  .01000717  00000-0  32071-2 0  9992
2 47176  53.0528 163.7884 0001467  49.8711 347.2953 15.88070695  1884
STARLINK-1907           
1 47177U 20088BH  21075.91667824 -.00034909  00000-0 -23353-2 0  9997
2 47177  53.0574 176.4060 0001258  64.6929 186.6591 15.06414305  1802
STARLINK-1912           
1 47178U 20088BJ  21075.91667824 -.00032437  00000-0 -21688-2 0  9991
2 47178  53.0469 186.4264 0001301 108.3756 247.9814 15.06397555 17708
STARLINK-1913           
1 47179U 20088BK  21076.25001157  .00038672  00000-0  26034-2 0  9996
2 47179  53.0540 194.9163 0002178 131.4573 298.5683 15.06363181 17869
STARLINK-1914           
1 47180U 20088BL  21075.91667824 -.00120752  00000-0 -82178-2 0  9993
2 47180  53.0555 196.4151 0001745 134.3169 307.0865 15.06437504  1854
STARLINK-1927           
1 47181U 20088BM  21075.91667824 -.00472861  00000-0 -16338-1 0  9999
2 47181  53.0524 168.5990 0001333  73.3677  71.7547 15.31447219  1811
LUCAS (JDRS-1)          
1 47202U 20089A   21075.69667052 -.00000241  00000-0  00000-0 0  9998
2 47202   0.0099 157.0989 0002639 203.2782 155.6729  1.00269445  1173
FALCON EYE 2            
1 47226U 20090A   21076.17745762  .00000078  00000-0  15362-4 0  9993
2 47226  97.8522 152.4837 0001608  83.8749 276.2663 14.84925357 15602
GONETS-M 20             
1 47227U 20091A   21076.15423083  .00000024  00000-0  10000-3 0  9996
2 47227  82.5028  54.6100 0021702  48.9258 311.3688 12.42883463 12939
GONETS-M 21             
1 47228U 20091B   21076.12839268  .00000024  00000-0  10000-3 0  9990
2 47228  82.4949  54.5216 0015911  61.2981 298.9698 12.42860900 12925
GONETS-M 22             
1 47229U 20091C   21075.29668202  .00020017  00000-0  14407+0 0  9991
2 47229  82.5038  55.0435 0023061  43.8597 316.2781 12.42898224 12814
COSMOS 2548             
1 47230U 20091D   21075.95111976  .00000002  00000-0 -55484-4 0  9995
2 47230  82.4991  54.6407 0016611  60.6364 299.6372 12.42951072 12810
GAOFEN 14               
1 47231U 20092A   21076.16591376  .00001474  00000-0  60932-4 0  9994
2 47231  97.4271 153.3423 0008940 268.7367 174.9106 15.25563513 15392
GECAM-A                 
1 47234U 20094A   21076.17906997  .00000385  00000-0  24531-4 0  9994
2 47234  28.9984 117.9507 0012845 211.8515 148.1312 14.90694468 14494
GECAM-B                 
1 47235U 20094B   21076.17233200  .00000406  00000-0  26509-4 0  9996
2 47235  28.9988 117.8910 0013037 211.2477 148.7351 14.90799485 14495
SXM-7                   
1 47240U 20096A   21075.72606903  .00000005  00000-0  00000-0 0  9997
2 47240   0.0357  84.3641 0003540 344.1086 246.8992  1.00270139  1080
IPM 2 & BREEZE-M R/B    
1 47242U 20097A   21076.23561963 -.00000131  00000-0  00000+0 0  9993
2 47242   0.2191 120.1305 0088417 202.3203  82.5297  0.95297951   983
STRIX-ALPHA             
1 47253U 20098A   21076.19843873  .00002956  00000-0  13597-3 0  9999
2 47253  97.3699 331.8405 0013861 344.6355 166.7248 15.21037190 13949
CMS-01                  
1 47256U 20099A   21075.91700172 -.00000170  00000-0  00000-0 0  9995
2 47256   0.0139 138.4244 0006194 150.2032 299.2044  1.00271357   969
ONEWEB-0102             
1 47258U 20100A   21076.25001157  .00000015  00000-0  00000+0 0  9991
2 47258  87.7681  12.3715 0009266 351.2222 110.3338 13.72317200 13047
ONEWEB-0109             
1 47259U 20100B   21076.25001157  .00000014  00000-0  00000+0 0  9991
2 47259  87.7268  12.1766 0009952 351.9531 152.0164 13.53214012 12916
ONEWEB-0110             
1 47260U 20100C   21076.25001157 -.00886286  00000-0 -91267+0 0  9993
2 47260  87.7747  12.2934 0009057 351.9605 325.8569 13.79509831 13044
ONEWEB-0111             
1 47261U 20100D   21076.25001157  .00000014  00000-0  00000+0 0  9994
2 47261  87.7870  12.1036 0010194 351.9580 298.7499 13.56183344 12917
ONEWEB-0114             
1 47262U 20100E   21076.25001157  .00000014  00000-0  00000+0 0  9995
2 47262  87.7792  12.0691 0010223 334.6021 286.9357 13.53468468 12897
ONEWEB-0117             
1 47263U 20100F   21076.25001157  .00000014  00000-0  00000+0 0  9996
2 47263  87.7581  12.1243 0010442 358.4572 186.2556 13.47959052 12908
ONEWEB-0118             
1 47264U 20100G   21076.25001157  .00000015  00000-0  00000+0 0  9998
2 47264  87.6914  12.3558 0011606 339.3388 353.4927 13.71296751 13060
ONEWEB-0119             
1 47265U 20100H   21076.25001157  .00000015  00000-0  00000+0 0  9999
2 47265  87.7567  12.3207 0013110 341.0761 168.8976 13.70774909 13038
ONEWEB-0120             
1 47266U 20100J   21076.25001157  .00000015  00000-0  00000+0 0  9990
2 47266  87.6897  12.3058 0009954 355.3201 299.4335 13.75886990 13046
ONEWEB-0121             
1 47267U 20100K   21076.25001157  .00000015  00000-0  00000+0 0  9991
2 47267  87.7030  12.0371 0012868 355.3902 215.1035 13.70812506 12945
ONEWEB-0122             
1 47268U 20100L   21076.25001157  .00000015  00000-0  00000+0 0  9992
2 47268  87.8240  12.1062 0008810 348.6503 233.7910 13.60702953 12909
ONEWEB-0123             
1 47269U 20100M   21076.25001157  .00000015  00000-0  00000+0 0  9993
2 47269  87.7560  12.2983 0008286 348.7113 280.5677 13.69072321 13024
ONEWEB-0124             
1 47270U 20100N   21076.25001157  .00000014  00000-0  00000+0 0  9994
2 47270  87.7178  12.1844 0009414 338.3230 305.4808 13.52549182 12922
ONEWEB-0125             
1 47271U 20100P   21075.91667824 -.00044011  00000-0 -54862-1 0  9990
2 47271  87.7382  12.3074 0009577 340.2698  79.2284 13.64870406  1759
ONEWEB-0126             
1 47272U 20100Q   21076.25001157  .00000015  00000-0  00000+0 0  9997
2 47272  87.7630  12.3776 0008599 334.6971 121.0483 13.71158077 13020
ONEWEB-0127             
1 47273U 20100R   21076.25001157  .00000015  00000-0  00000+0 0  9998
2 47273  87.6885  12.3337 0011042 344.3954 194.5839 13.68003731 13067
ONEWEB-0128             
1 47274U 20100S   21076.25001157  .00000015  00000-0  00000+0 0  9999
2 47274  87.6855  12.3577 0010675 316.5791 183.6844 13.71582740 13074
ONEWEB-0129             
1 47275U 20100T   21076.25001157  .00000015  00000-0  00000+0 0  9990
2 47275  87.7013  12.2158 0012064 353.8294  74.2849 13.77760475 12980
ONEWEB-0130             
1 47276U 20100U   21076.25001157  .00000015  00000-0  00000+0 0  9991
2 47276  87.6734  12.3009 0008097 335.1233 323.1766 13.62951499 12990
ONEWEB-0131             
1 47277U 20100V   21076.25001157  .00000015  00000-0  00000+0 0  9992
2 47277  87.7054  12.2855 0007452 345.0219 241.0352 13.67675513 13022
ONEWEB-0132             
1 47278U 20100W   21076.25001157  .00000015  00000-0  00000+0 0  9993
2 47278  87.7788  12.2027 0009279 353.5076 304.6545 13.58329046 12938
ONEWEB-0133             
1 47279U 20100X   21076.25001157  .00000015  00000-0  00000+0 0  9994
2 47279  87.6926  12.3748 0011501 337.0935 328.0509 13.72835291 13059
ONEWEB-0134             
1 47280U 20100Y   21076.25001157  .00000015  00000-0  00000+0 0  9996
2 47280  87.6881  12.3225 0012375 349.8367 138.6616 13.67631172 13039
ONEWEB-0135             
1 47281U 20100Z   21076.25001157  .00000015  00000-0  00000+0 0  9997
2 47281  87.7265  12.3597 0011705 321.9861  59.2305 13.75771134 13063
ONEWEB-0136             
1 47282U 20100AA  21076.25001157  .00000015  00000-0  00000+0 0  9998
2 47282  87.6586  12.2663 0008683 341.3232 106.0840 13.68596734 12990
ONEWEB-0137             
1 47283U 20100AB  21076.25001157  .00000014  00000-0  00000+0 0  9998
2 47283  87.7871  12.2320 0011609 335.2957 211.6142 13.55077781 12920
ONEWEB-0138             
1 47284U 20100AC  21075.91667824 -.00755921  00000-0 -79319+0 0  9995
2 47284  87.8220  12.1944 0011684 350.5745  15.5948 13.77870659  1730
ONEWEB-0139             
1 47285U 20100AD  21076.25001157  .00000015  00000-0  00000+0 0  9991
2 47285  87.7125  12.3611 0010072 322.5777  23.6674 13.73875592 13052
ONEWEB-0140             
1 47286U 20100AE  21076.25001157  .00000015  00000-0  00000+0 0  9992
2 47286  87.7343  12.3011 0010239 354.2615 160.1958 13.71687772 13014
ONEWEB-0141             
1 47287U 20100AF  21076.25001157  .00000015  00000-0  00000+0 0  9993
2 47287  87.7788  12.3149 0011014 336.9386 240.8067 13.74861895 13014
ONEWEB-0142             
1 47288U 20100AG  21076.25001157  .00000015  00000-0  00000+0 0  9994
2 47288  87.7424  12.3422 0007527 342.0489 234.2075 13.69413645 13018
